NUSAT-50 (NANCY ROMAN)  
1 60493U 24149AB  26068.80227738  .00012094  00000+0  42252-3 0  9994
2 60493  97.3817 150.7693 0002523 238.0469 122.0527 15.29713355 86930
STARLINK-35638          
1 66169U 25240Z   26068.21295664  .00011681  00000+0  40601-3 0  9998
2 66169  53.1589  65.1441 0001351  64.8493 295.2648 15.30190887 21917
